{
"type": "FeatureCollection",
"name": "structure_line_ordered_south",
"crs": { "type": "name", "properties": { "name": "urn:ogc:def:crs:EPSG::32632" } },
"features": [
{ "type": "Feature", "properties": { "id": 1, "length (m)": 7208 }, "geometry": { "type": "LineString", "coordinates": [ [ 363740.0, 5598908.942744740284979 ], [ 363778.125729211373255, 5598908.942744740284979 ], [ 363821.139214304334018, 5598913.179203251376748 ], [ 363860.697471676627174, 5598925.179069434292614 ], [ 363897.154570464801509, 5598944.665794720873237 ], [ 363905.40822505246615, 5598951.439393987879157 ], [ 363911.626813634415157, 5598955.594522036612034 ], [ 363918.536539049644489, 5598958.456624016165733 ], [ 363940.697471676568966, 5598965.179069434292614 ], [ 363977.154570464801509, 5598984.665794720873237 ], [ 363985.40822505246615, 5598991.439393987879157 ], [ 363991.626813634415157, 5598995.594522036612034 ], [ 363998.536539049644489, 5598998.456624016165733 ], [ 364020.697471676568966, 5599005.179069434292614 ], [ 364057.154570464801509, 5599024.665794720873237 ], [ 364065.40822505246615, 5599031.439393987879157 ], [ 364071.626813634415157, 5599035.594522036612034 ], [ 364078.536539049644489, 5599038.456624016165733 ], [ 364100.697471676568966, 5599045.179069434292614 ], [ 364137.154570465150755, 5599064.665794720873237 ], [ 364170.565325991250575, 5599092.085293166339397 ], [ 364218.785865519661456, 5599140.30583269521594 ], [ 364225.616497624258045, 5599145.727007858455181 ], [ 364233.49971318198368, 5599149.455491137690842 ], [ 364242.023645386158023, 5599151.296484041959047 ], [ 364261.139214304334018, 5599153.179203251376748 ], [ 364300.697471676627174, 5599165.179069434292614 ], [ 364337.154570465150755, 5599184.665794720873237 ], [ 364370.565325991250575, 5599212.085293166339397 ], [ 364378.785865519661456, 5599220.30583269521594 ], [ 364385.616497624258045, 5599225.727007858455181 ], [ 364393.49971318198368, 5599229.455491137690842 ], [ 364402.023645386158023, 5599231.296484041959047 ], [ 364421.139214304334018, 5599233.179203251376748 ], [ 364460.697471676277928, 5599245.179069434292614 ], [ 364500.051515866420232, 5599266.214244298636913 ], [ 364506.961241281533148, 5599269.076346278190613 ], [ 364514.29656665713992, 5599270.53543321415782 ], [ 364541.139214304334018, 5599273.179203250445426 ], [ 364580.697471676627174, 5599285.179069434292614 ], [ 364617.154570464801509, 5599304.665794720873237 ], [ 364625.40822505246615, 5599311.439393987879157 ], [ 364631.626813634415157, 5599315.594522036612034 ], [ 364638.536539049644489, 5599318.456624016165733 ], [ 364660.697471676568966, 5599325.179069434292614 ], [ 364697.154570465150755, 5599344.665794720873237 ], [ 364730.565325991250575, 5599372.085293166339397 ], [ 364827.914706829760689, 5599469.434674005024135 ], [ 364855.334205280407332, 5599502.845429536886513 ], [ 364874.820930566755123, 5599539.302528324536979 ], [ 364879.465915960667189, 5599554.614993055351079 ], [ 364881.757594290887937, 5599560.414198221638799 ], [ 364884.963327705743723, 5599565.762641304172575 ], [ 364888.997480371559504, 5599570.517447547055781 ], [ 364907.91470682999352, 5599589.434674005955458 ], [ 364935.334205280407332, 5599622.845429536886513 ], [ 364954.820930566696916, 5599659.302528324536979 ], [ 364966.820796749379952, 5599698.860785694792867 ], [ 364971.057255259249359, 5599741.87427078653127 ], [ 364971.057255259249359, 5599778.12572921346873 ], [ 364966.820796749379952, 5599821.139214305207133 ], [ 364954.820930566696916, 5599860.697471675463021 ], [ 364935.334205280058086, 5599897.154570464044809 ], [ 364928.560606012411881, 5599905.408225052058697 ], [ 364924.405477963620797, 5599911.626813634298742 ], [ 364921.54337598424172, 5599918.536539049819112 ], [ 364914.8209305665805, 5599940.697471675463021 ], [ 364894.506237511697691, 5599978.703589207492769 ], [ 364892.293334397138096, 5599982.015432761050761 ], [ 364889.431232417817228, 5599988.925158176571131 ], [ 364887.972145481791813, 5599996.260483551770449 ], [ 364887.972145481791813, 5600003.739516448229551 ], [ 364889.431232417817228, 5600011.074841823428869 ], [ 364892.293334397138096, 5600017.984567238949239 ], [ 364894.506237511755899, 5600021.296410792507231 ], [ 364914.820930566231254, 5600059.302528323605657 ], [ 364914.923925146169495, 5600059.642055951990187 ], [ 364917.786027125606779, 5600066.551781367510557 ], [ 364921.941155174339656, 5600072.770369949750602 ], [ 364927.229630051821005, 5600078.058844827115536 ], [ 364933.448218634177465, 5600082.213972875848413 ], [ 364940.357944049756043, 5600085.076074854470789 ], [ 364940.697471675521228, 5600085.179069433361292 ], [ 364976.728106835682411, 5600104.437845162115991 ], [ 364982.449225421994925, 5600106.918041173368692 ], [ 364988.497941630717833, 5600108.433165709488094 ], [ 364994.712674074282404, 5600108.942744740284979 ], [ 365005.287325925717596, 5600108.942744740284979 ], [ 365011.502058369282167, 5600108.433165709488094 ], [ 365017.550774578005075, 5600106.918041173368692 ], [ 365023.271893164317589, 5600104.437845162115991 ], [ 365059.302528323372826, 5600085.179069434292614 ], [ 365098.860785695665982, 5600073.179203250445426 ], [ 365125.70343334286008, 5600070.53543321415782 ], [ 365133.038758718466852, 5600069.076346278190613 ], [ 365139.948484133579768, 5600066.214244298636913 ], [ 365179.302528323722072, 5600045.179069434292614 ], [ 365218.860785695665982, 5600033.179203251376748 ], [ 365261.874270788626745, 5600028.942744740284979 ], [ 365365.287325925717596, 5600028.942744740284979 ], [ 365371.502058369282167, 5600028.433165709488094 ], [ 365377.550774578005075, 5600026.918041173368692 ], [ 365383.271893164317589, 5600024.437845162115991 ], [ 365419.302528323372826, 5600005.179069434292614 ], [ 365458.860785695665982, 5599993.179203251376748 ], [ 365501.874270788626745, 5599988.942744740284979 ], [ 365738.125729211373255, 5599988.942744740284979 ], [ 365781.139214304334018, 5599993.179203251376748 ], [ 365820.697471676627174, 5600005.179069434292614 ], [ 365857.154570464801509, 5600024.665794720873237 ], [ 365865.40822505246615, 5600031.439393987879157 ], [ 365871.626813634415157, 5600035.594522036612034 ], [ 365878.536539049644489, 5600038.456624016165733 ], [ 365900.697471676568966, 5600045.179069434292614 ], [ 365937.154570465150755, 5600064.665794720873237 ], [ 365970.565325991250575, 5600092.08529316727072 ], [ 366149.482552453642711, 5600271.002519628964365 ], [ 366156.84597652812954, 5600276.748992177657783 ], [ 366165.385006944357883, 5600280.534084039740264 ], [ 366180.697471676627174, 5600285.179069434292614 ], [ 366220.051515866420232, 5600306.214244298636913 ], [ 366226.961241281533148, 5600309.076346278190613 ], [ 366234.29656665713992, 5600310.53543321415782 ], [ 366261.139214304334018, 5600313.179203250445426 ], [ 366300.697471676627174, 5600325.179069434292614 ], [ 366336.728106835682411, 5600344.437845162115991 ], [ 366342.449225421994925, 5600346.918041173368692 ], [ 366348.497941630717833, 5600348.433165709488094 ], [ 366354.712674074282404, 5600348.942744740284979 ], [ 366378.125729211373255, 5600348.942744740284979 ], [ 366421.139214304334018, 5600353.179203251376748 ], [ 366460.697471676627174, 5600365.179069434292614 ], [ 366496.728106835682411, 5600384.437845162115991 ], [ 366502.449225421994925, 5600386.918041173368692 ], [ 366508.497941630717833, 5600388.433165709488094 ], [ 366514.712674074282404, 5600388.942744740284979 ], [ 366538.125729211373255, 5600388.942744740284979 ], [ 366581.139214304334018, 5600393.179203251376748 ], [ 366620.697471675928682, 5600405.179069434292614 ], [ 366642.015432761167176, 5600416.573757030069828 ], [ 366648.925158176396508, 5600419.435859009623528 ], [ 366656.260483552177902, 5600420.894945945590734 ], [ 366663.739516447822098, 5600420.894945945590734 ], [ 366671.074841823603492, 5600419.435859009623528 ], [ 366677.984567238832824, 5600416.573757030069828 ], [ 366699.302528324071318, 5600405.179069434292614 ], [ 366738.860785695665982, 5600393.179203251376748 ], [ 366781.874270788626745, 5600388.942744740284979 ], [ 367178.125729211373255, 5600388.942744740284979 ], [ 367221.139214304334018, 5600393.179203251376748 ], [ 367260.697471676627174, 5600405.179069434292614 ], [ 367296.728106835682411, 5600424.437845162115991 ], [ 367302.449225421994925, 5600426.918041173368692 ], [ 367308.497941630717833, 5600428.433165709488094 ], [ 367314.712674074282404, 5600428.942744740284979 ], [ 367485.287325925717596, 5600428.942744740284979 ], [ 367491.502058369282167, 5600428.433165709488094 ], [ 367497.550774578005075, 5600426.918041173368692 ], [ 367503.271893164317589, 5600424.437845162115991 ], [ 367539.302528323372826, 5600405.179069434292614 ], [ 367578.860785695665982, 5600393.179203251376748 ], [ 367621.874270788626745, 5600388.942744740284979 ], [ 368178.125729211373255, 5600388.942744740284979 ], [ 368221.139214304334018, 5600393.179203251376748 ], [ 368260.697471676627174, 5600405.179069434292614 ], [ 368296.728106835682411, 5600424.437845162115991 ], [ 368302.449225421994925, 5600426.918041173368692 ], [ 368308.497941630717833, 5600428.433165709488094 ], [ 368314.712674074282404, 5600428.942744740284979 ], [ 368605.287325925717596, 5600428.942744740284979 ], [ 368611.502058369282167, 5600428.433165709488094 ], [ 368617.550774578005075, 5600426.918041173368692 ], [ 368623.271893164317589, 5600424.437845162115991 ], [ 368659.302528323372826, 5600405.179069434292614 ], [ 368698.860785695665982, 5600393.179203251376748 ], [ 368741.874270788626745, 5600388.942744740284979 ], [ 368845.287325925717596, 5600388.942744740284979 ], [ 368851.502058369282167, 5600388.433165709488094 ], [ 368857.550774578005075, 5600386.918041173368692 ], [ 368863.271893164317589, 5600384.437845162115991 ], [ 368899.302528323372826, 5600365.179069434292614 ], [ 368938.860785695665982, 5600353.179203251376748 ], [ 368981.874270788626745, 5600348.942744740284979 ], [ 369458.125729211373255, 5600348.942744740284979 ], [ 369501.139214304334018, 5600353.179203251376748 ], [ 369540.697471676627174, 5600365.179069434292614 ], [ 369577.154570465150755, 5600384.665794720873237 ], [ 369610.565325991250575, 5600412.085293166339397 ], [ 369789.240016412455589, 5600590.759983588010073 ] ] } }
]
}
