{
"type": "FeatureCollection",
"name": "structure_line_ordered",
"crs": { "type": "name", "properties": { "name": "urn:ogc:def:crs:EPSG::32632" } },
"features": [
{ "type": "Feature", "properties": { "id": 1, "length (m)": 7057 }, "geometry": { "type": "LineString", "coordinates": [ [ 363573.629500704933889, 5599326.370499295182526 ], [ 363653.360428735322785, 5599406.101427325978875 ], [ 363655.286877141916193, 5599407.847458384931087 ], [ 363687.217114913626574, 5599434.051927310414612 ], [ 363691.53320633911062, 5599436.935847400687635 ], [ 363727.626153803023044, 5599456.227929749526083 ], [ 363732.421937644365244, 5599458.214408458210528 ], [ 363747.440889848803636, 5599462.770357800647616 ], [ 363749.797085718601011, 5599463.701458332128823 ], [ 363751.970138600678183, 5599465.003936105407774 ], [ 363753.901999003603123, 5599466.642997593618929 ], [ 363773.360428737534676, 5599486.10142732784152 ], [ 363775.28687713999534, 5599487.847458383068442 ], [ 363807.217114913626574, 5599514.051927310414612 ], [ 363811.53320633911062, 5599516.935847400687635 ], [ 363847.62615380337229, 5599536.227929749526083 ], [ 363852.421937644539867, 5599538.214408458210528 ], [ 363874.055489344522357, 5599544.776874620467424 ], [ 363876.862885534297675, 5599545.939736196771264 ], [ 363879.389475353818852, 5599547.627949541434646 ], [ 363887.217114912869874, 5599554.051927310414612 ], [ 363891.533206336258445, 5599556.93584739882499 ], [ 363927.626153803023044, 5599576.227929749526083 ], [ 363932.421937644365244, 5599578.214408458210528 ], [ 363947.440889848803636, 5599582.770357800647616 ], [ 363949.797085718601011, 5599583.701458332128823 ], [ 363951.970138600678183, 5599585.003936105407774 ], [ 363953.901999003603123, 5599586.642997593618929 ], [ 363973.360428737534676, 5599606.10142732784152 ], [ 363975.28687713999534, 5599607.847458383068442 ], [ 364007.217114913626574, 5599634.051927310414612 ], [ 364011.53320633911062, 5599636.935847400687635 ], [ 364047.62615380337229, 5599656.227929749526083 ], [ 364052.421937644539867, 5599658.214408458210528 ], [ 364074.055489344522357, 5599664.776874620467424 ], [ 364076.862885534297675, 5599665.939736196771264 ], [ 364079.389475353818852, 5599667.627949541434646 ], [ 364087.217114912869874, 5599674.051927310414612 ], [ 364091.533206336258445, 5599676.93584739882499 ], [ 364127.62615380337229, 5599696.227929749526083 ], [ 364132.421937644539867, 5599698.214408458210528 ], [ 364154.055489344522357, 5599704.776874620467424 ], [ 364156.862885534297675, 5599705.939736196771264 ], [ 364159.389475353818852, 5599707.627949541434646 ], [ 364167.217114912869874, 5599714.051927310414612 ], [ 364171.533206336258445, 5599716.93584739882499 ], [ 364207.626153803023044, 5599736.227929749526083 ], [ 364212.421937644365244, 5599738.214408458210528 ], [ 364227.440889848803636, 5599742.770357800647616 ], [ 364229.797085718601011, 5599743.701458332128823 ], [ 364231.970138600678183, 5599745.003936105407774 ], [ 364233.901999003603123, 5599746.642997593618929 ], [ 364253.360428737534676, 5599766.10142732784152 ], [ 364255.28687713999534, 5599767.847458383068442 ], [ 364287.217114913626574, 5599794.051927310414612 ], [ 364291.533206338703167, 5599796.935847400687635 ], [ 364327.479769384837709, 5599816.149685648269951 ], [ 364330.00635920377681, 5599817.83789899200201 ], [ 364332.155047222971916, 5599819.986587011255324 ], [ 364333.843260566820391, 5599822.513176830485463 ], [ 364335.006122143240646, 5599825.32057301979512 ], [ 364335.59894383396022, 5599828.300888917408884 ], [ 364335.59894383396022, 5599831.339592655189335 ], [ 364335.00612214312423, 5599834.319908553734422 ], [ 364333.843260566645768, 5599837.127304742112756 ], [ 364332.155047222739086, 5599839.653894561342895 ], [ 364325.948072690749541, 5599847.217114911414683 ], [ 364323.064152599545196, 5599851.533206338994205 ], [ 364303.772070250357501, 5599887.62615380436182 ], [ 364301.785591542604379, 5599892.421937642619014 ], [ 364289.905585889646318, 5599931.585067799314857 ], [ 364288.892887826194055, 5599936.676244767382741 ], [ 364284.844157848041505, 5599977.783690089359879 ], [ 364284.716583518194966, 5599980.380525229498744 ], [ 364284.716583518194966, 5600179.619474770501256 ], [ 364284.844157848041505, 5600182.216309910640121 ], [ 364288.892887826194055, 5600223.323755232617259 ], [ 364289.905585889646318, 5600228.414932200685143 ], [ 364301.785591542604379, 5600267.578062357380986 ], [ 364303.772070250357501, 5600272.37384619563818 ], [ 364323.064152599545196, 5600308.466793661005795 ], [ 364325.94807269028388, 5600312.782885087653995 ], [ 364352.152541611168999, 5600344.713122854009271 ], [ 364353.898572676931508, 5600346.639571267180145 ], [ 364413.360428735322785, 5600406.101427325978875 ], [ 364415.286877141916193, 5600407.847458384931087 ], [ 364447.217114913626574, 5600434.051927310414612 ], [ 364451.53320633911062, 5600436.935847400687635 ], [ 364487.62615380337229, 5600456.227929749526083 ], [ 364492.421937644539867, 5600458.214408458210528 ], [ 364514.055489344522357, 5600464.776874620467424 ], [ 364516.862885534297675, 5600465.939736196771264 ], [ 364519.389475353818852, 5600467.627949541434646 ], [ 364527.217114912869874, 5600474.051927310414612 ], [ 364531.533206336258445, 5600476.93584739882499 ], [ 364567.626153803023044, 5600496.227929749526083 ], [ 364572.421937644365244, 5600498.214408458210528 ], [ 364587.440889848803636, 5600502.770357800647616 ], [ 364589.797085718601011, 5600503.701458332128823 ], [ 364591.970138600678183, 5600505.003936105407774 ], [ 364593.901999003603123, 5600506.642997593618929 ], [ 364613.360428737534676, 5600526.10142732784152 ], [ 364615.28687713999534, 5600527.847458383068442 ], [ 364647.217114913626574, 5600554.051927310414612 ], [ 364651.53320633911062, 5600556.935847400687635 ], [ 364687.626153802324552, 5600576.227929749526083 ], [ 364692.421937644598074, 5600578.214408458210528 ], [ 364731.58506779972231, 5600590.094414110295475 ], [ 364736.676244763541035, 5600591.107112172991037 ], [ 364777.783690102514811, 5600595.155842152424157 ], [ 364780.380525224027224, 5600595.283416481688619 ], [ 365219.619474775972776, 5600595.283416481688619 ], [ 365222.216309897485189, 5600595.155842152424157 ], [ 365263.323755236458965, 5600591.107112172991037 ], [ 365268.41493220027769, 5600590.094414110295475 ], [ 365307.578062355401926, 5600578.214408458210528 ], [ 365312.373846197675448, 5600576.227929749526083 ], [ 365348.466793665720616, 5600556.935847397893667 ], [ 365349.443546758091543, 5600556.283201847225428 ], [ 365351.658052038343158, 5600555.052521733567119 ], [ 365354.043451126723085, 5600554.199012292549014 ], [ 365356.536022056185175, 5600553.74547360651195 ], [ 365383.323755236458965, 5600551.107112172991037 ], [ 365388.414932200103067, 5600550.094414110295475 ], [ 365427.578062355401926, 5600538.214408458210528 ], [ 365432.373846197675448, 5600536.227929749526083 ], [ 365468.13397866935702, 5600517.113740719854832 ], [ 365470.458448246878106, 5600516.106046142987907 ], [ 365472.916019541269634, 5600515.4904565801844 ], [ 365475.441042625287082, 5600515.283416481688619 ], [ 365636.121743425028399, 5600515.283416481688619 ], [ 365639.145814974035602, 5600515.581261532381177 ], [ 365642.053673149377573, 5600516.463350666686893 ], [ 365644.733570592012256, 5600517.895785692147911 ], [ 365647.082520346273668, 5600519.823518936522305 ], [ 365813.360428735322785, 5600686.101427325978875 ], [ 365815.286877141916193, 5600687.847458384931087 ], [ 365847.217114913626574, 5600714.051927310414612 ], [ 365851.53320633911062, 5600716.935847400687635 ], [ 365887.62615380337229, 5600736.227929749526083 ], [ 365892.421937644539867, 5600738.214408458210528 ], [ 365914.055489344522357, 5600744.776874620467424 ], [ 365916.862885534297675, 5600745.939736196771264 ], [ 365919.389475353818852, 5600747.627949541434646 ], [ 365927.217114912869874, 5600754.051927310414612 ], [ 365931.533206336258445, 5600756.93584739882499 ], [ 365967.62615380337229, 5600776.227929749526083 ], [ 365972.421937644539867, 5600778.214408458210528 ], [ 365994.055489344522357, 5600784.776874620467424 ], [ 365996.862885534297675, 5600785.939736196771264 ], [ 365999.389475353818852, 5600787.627949541434646 ], [ 366007.217114912869874, 5600794.051927310414612 ], [ 366011.533206336258445, 5600796.93584739882499 ], [ 366047.626153802324552, 5600816.227929749526083 ], [ 366052.421937644598074, 5600818.214408458210528 ], [ 366091.58506779972231, 5600830.094414110295475 ], [ 366096.676244763541035, 5600831.107112172991037 ], [ 366137.783690102514811, 5600835.155842152424157 ], [ 366140.380525224027224, 5600835.283416481688619 ], [ 366164.558957374712918, 5600835.283416481688619 ], [ 366167.083980458730366, 5600835.4904565801844 ], [ 366169.541551753121894, 5600836.106046142987907 ], [ 366171.86602133064298, 5600837.113740719854832 ], [ 366207.626153802324552, 5600856.227929749526083 ], [ 366212.421937644598074, 5600858.214408458210528 ], [ 366251.58506779972231, 5600870.094414110295475 ], [ 366256.676244763541035, 5600871.107112172991037 ], [ 366297.783690102514811, 5600875.155842152424157 ], [ 366300.380525224027224, 5600875.283416481688619 ], [ 366324.558957374712918, 5600875.283416481688619 ], [ 366327.083980458730366, 5600875.4904565801844 ], [ 366329.541551753121894, 5600876.106046142987907 ], [ 366331.86602133064298, 5600877.113740719854832 ], [ 366367.626153802324552, 5600896.227929749526083 ], [ 366372.421937644598074, 5600898.214408458210528 ], [ 366411.58506779972231, 5600910.094414110295475 ], [ 366416.676244763541035, 5600911.107112172991037 ], [ 366457.783690102514811, 5600915.155842152424157 ], [ 366460.380525224027224, 5600915.283416481688619 ], [ 367204.558957374712918, 5600915.283416481688619 ], [ 367207.083980458730366, 5600915.4904565801844 ], [ 367209.541551753121894, 5600916.106046142987907 ], [ 367211.86602133064298, 5600917.113740719854832 ], [ 367247.626153802324552, 5600936.227929749526083 ], [ 367252.421937644598074, 5600938.214408458210528 ], [ 367291.58506779972231, 5600950.094414110295475 ], [ 367296.676244763541035, 5600951.107112172991037 ], [ 367337.783690102514811, 5600955.155842152424157 ], [ 367340.380525224027224, 5600955.283416481688619 ], [ 367619.619474775972776, 5600955.283416481688619 ], [ 367622.216309897485189, 5600955.155842152424157 ], [ 367663.323755236458965, 5600951.107112172991037 ], [ 367668.41493220027769, 5600950.094414110295475 ], [ 367707.578062355401926, 5600938.214408458210528 ], [ 367712.373846197675448, 5600936.227929749526083 ], [ 367748.13397866935702, 5600917.113740719854832 ], [ 367750.458448246878106, 5600916.106046142987907 ], [ 367752.916019541269634, 5600915.4904565801844 ], [ 367755.441042625287082, 5600915.283416481688619 ], [ 368939.619474775972776, 5600915.283416481688619 ], [ 368942.216309897485189, 5600915.155842152424157 ], [ 368983.323755236458965, 5600911.107112172991037 ], [ 368988.41493220027769, 5600910.094414110295475 ], [ 369027.578062355401926, 5600898.214408458210528 ], [ 369032.373846197675448, 5600896.227929749526083 ], [ 369068.13397866935702, 5600877.113740719854832 ], [ 369070.458448246878106, 5600876.106046142987907 ], [ 369072.916019541269634, 5600875.4904565801844 ], [ 369075.441042625287082, 5600875.283416481688619 ], [ 369099.619474775972776, 5600875.283416481688619 ], [ 369102.216309897485189, 5600875.155842152424157 ], [ 369143.323755236458965, 5600871.107112172991037 ], [ 369148.41493220027769, 5600870.094414110295475 ], [ 369187.578062355401926, 5600858.214408458210528 ], [ 369192.373846197675448, 5600856.227929749526083 ], [ 369228.13397866935702, 5600837.113740719854832 ], [ 369230.458448246878106, 5600836.106046142987907 ], [ 369232.916019541269634, 5600835.4904565801844 ], [ 369235.441042625287082, 5600835.283416481688619 ], [ 369284.558957376226317, 5600835.283416481688619 ], [ 369287.083980460301973, 5600835.4904565801844 ], [ 369289.541551754693501, 5600836.106046142987907 ], [ 369291.866021332272794, 5600837.113740719854832 ], [ 369307.934165894635953, 5600845.702342922799289 ], [ 369310.460755713575054, 5600847.390556266531348 ], [ 369312.60944373277016, 5600849.539244285784662 ], [ 369314.297657076560427, 5600852.065834105014801 ], [ 369323.064152598963119, 5600868.466793660074472 ], [ 369325.948072690982372, 5600872.782885088585317 ], [ 369352.152541611168999, 5600904.713122854009271 ], [ 369353.898572676931508, 5600906.639571267180145 ], [ 369373.629500704933889, 5600926.370499295182526 ] ] } }
]
}
